IRIDIUM 26              
1 24903U 97043A   25229.59586872  .00000308  00000+0  96961-4 0  9996
2 24903  86.3907  84.8147 0001950  90.2708 269.8713 14.37183354465567
IRIDIUM 22              
1 24907U 97043E   25229.57653075  .00000295  00000+0  94960-4 0  9990
2 24907  86.3914  88.4178 0002141  90.2267 269.9175 14.35991875465584
DUMMY MASS 1            
1 24925U 97048A   25229.38534855  .00000318  00000+0  32307-4 0  9991
2 24925  86.3329 107.0361 0004451 300.5966  59.4819 14.87028472514229
DUMMY MASS 2            
1 24926U 97048B   25229.42499886  .00000318  00000+0  32512-4 0  9999
2 24926  86.3333 108.6372 0005504 314.7474  45.3302 14.86780510514009
IRIDIUM 29              
1 24944U 97051A   25229.43820944  .00000315  00000+0  10068-3 0  9995
2 24944  86.3960 118.2154 0002368  85.1756 274.9711 14.36509772462063
IRIDIUM 33              
1 24946U 97051C   25229.41764427  .00000235  00000+0  75729-4 0  9995
2 24946  86.3875 117.4893 0006025 229.2876 130.7797 14.34924734461529
IRIDIUM 28              
1 24948U 97051E   25229.72108547  .00000250  00000+0  77038-4 0  9998
2 24948  86.3960 115.5765 0001698  92.7959 267.3433 14.37421350462758
IRIDIUM 36              
1 24967U 97056C   25229.53557837  .00000278  00000+0  85934-4 0  9997
2 24967  86.4022 147.2515 0002182  92.2477 267.8970 14.37648933461032
